{"spkid": "20481327", "covariance": {"data": [["1.950911714677929E-15", "-2.620552550870395E-15", "2.074109340142656E-13", "-3.345171194273972E-14", "2.419004028560013E-13", "-8.275831683083607E-14"], ["-2.620552550870395E-15", "3.524431487029826E-15", "-2.765797020140267E-13", "4.105750543820711E-14", "-3.187035343629072E-13", "1.013810246297201E-13"], ["2.074109340142656E-13", "-2.765797020140267E-13", "1.75869069464194E-10", "-1.654086016869848E-11", "1.408056870669143E-10", "1.626617596848131E-11"], ["-3.345171194273972E-14", "4.105750543820711E-14", "-1.654086016869848E-11", "7.284004034712843E-11", "-7.581511944811033E-11", "-1.166324184176322E-11"], ["2.419004028560013E-13", "-3.187035343629072E-13", "1.408056870669143E-10", "-7.581511944811033E-11", "1.825248183111707E-10", "1.199128467400737E-11"], ["-8.275831683083607E-14", "1.013810246297201E-13", "1.626617596848131E-11", "-1.166324184176322E-11", "1.199128467400737E-11", "1.431406328713868E-10"]], "elements": [{"units": null, "title": "eccentricity", "value": ".2457286095094618", "sigma": 4.41691262612011e-08, "name": "e", "label": "e"}, {"label": "q", "sigma": 5.93669224992321e-08, "name": "q", "value": "1.027600322708038", "title": "perihelion distance", "units": "au"}, {"units": "TDB", "value": "2458589.180694506670", "title": "time of perihelion passage", "sigma": 1.32615636130961e-05, "name": "tp", "label": "tp"}, {"name": "om", "sigma": 8.53463768106933e-06, "value": "132.188295274553", "title": "longitude of the ascending node", "units": "deg", "label": "node"}, {"title": "argument of perihelion", "value": "144.6581526170595", "units": "deg", "sigma": 1.35101746217867e-05, "name": "w", "label": "peri"}, {"sigma": 1.19641394538591e-05, "name": "i", "title": "inclination", "value": "27.1560812398584", "units": "deg", "label": "i"}], "labels": ["e", "q", "tp", "node", "peri", "i"], "epoch": "2458853.5"}, "elements": [{"label": "e", "sigma": "4.4179E-8", "name": "e", "value": ".2456030347873614", "title": "eccentricity", "units": null}, {"units": "au", "title": "semi-major axis", "value": "1.362108018010276", "sigma": "2.8766E-9", "name": "a", "label": "a"}, {"sigma": "5.9385E-8", "name": "q", "value": "1.027570155078754", "title": "perihelion distance", "units": "au", "label": "q"}, {"sigma": "1.1965E-5", "name": "i", "units": "deg", "value": "27.16042964803658", "title": "inclination; angle with respect to x-y ecliptic plane", "label": "i"}, {"label": "node", "units": "deg", "title": "longitude of the ascending node", "value": "132.1598256323982", "name": "om", "sigma": "8.5328E-6"}, {"units": "deg", "value": "144.6873136547522", "title": "argument of perihelion", "name": "w", "sigma": "1.3513E-5", "label": "peri"}, {"title": "mean anomaly", "value": "178.8481422536026", "units": "deg", "sigma": "1.0562E-5", "name": "ma", "label": "M"}, {"label": "tp", "units": "TDB", "value": "2460912.031973386976", "title": "time of perihelion passage", "name": "tp", "sigma": "1.6464E-5"}, {"label": "period", "name": "per", "sigma": "1.8394E-6", "units": "d", "title": "sidereal orbital period", "value": "580.6517656383248"}, {"label": "n", "title": "mean motion", "value": ".6199929481041758", "units": "deg/d", "sigma": "1.964E-9", "name": "n"}, {"label": "Q", "units": "au", "title": "aphelion distance", "value": "1.696645880941798", "name": "ad", "sigma": "3.5831E-9"}], "epoch": "2461200.5"}